#aP2005  8 12  0  0  0.00000000      96 ORBIT IGb00 HLM  IGS
## 1335 432000.00000000   900.00000000 53594 0.0000000000000
+   29     1  2  3  4  5  6  7  8  9 10 11 13 14 15 16 18 19
+         20 21 22 23 24 25 26 27 28 29 30 31  0  0  0  0  0
+          0  0  0  0  0  0  0  0  0  0  0  0  0  0  0  0  0
+          0  0  0  0  0  0  0  0  0  0  0  0  0  0  0  0  0
+          0  0  0  0  0  0  0  0  0  0  0  0  0  0  0  0  0
++         3  4  3  3  3  3  3  3  3  3  3  3  3  3  0  3  3
++         3  3  3  3  3  3  3  3  3  3  3  3  0  0  0  0  0
++         0  0  0  0  0  0  0  0  0  0  0  0  0  0  0  0  0
++         0  0  0  0  0  0  0  0  0  0  0  0  0  0  0  0  0
++         0  0  0  0  0  0  0  0  0  0  0  0  0  0  0  0  0
%c cc cc ccc ccc cccc cccc cccc cccc ccccc ccccc ccccc ccccc
%c cc cc ccc ccc cccc cccc cccc cccc ccccc ccccc ccccc ccccc
%f  0.0000000  0.000000000  0.00000000000  0.000000000000000
%f  0.0000000  0.000000000  0.00000000000  0.000000000000000
%i    0    0    0    0      0      0      0      0         0
%i    0    0    0    0      0      0      0      0         0
/* FINAL ORBIT COMBINATION FROM WEIGHTED AVERAGE OF:        
/* cod emr esa gfz jpl mit ngs sio                          
/* REFERENCED TO IGS TIME AND TO WEIGHTED MEAN POLE:        
/* CLK ANT Z-OFFSET (M): II/IIA 1.023; IIR 0.000            
*  2005  8 12 16  0  0.00000000
P  1 -15927.983695 -14924.602040  15345.703746      2.858152
P  2  13622.662170  20667.445342 -10099.354050    -27.148902
P  3 -21728.240488 -11367.203583 -10680.110119     25.383888
P  4   4575.093668  25747.538368   3433.253480     26.123637
P  5  20438.854764  -8523.418747  14363.545210    121.885581
P  6  18524.429739  -8788.608488 -16735.978404    773.953328
P  7   2347.848636  16344.038358  21258.679413    278.635200
P  8  -1366.806914  24152.538887 -10680.573004    -37.997764
P  9  16149.729829   2736.753040  20457.065100     -2.590042
P 10  11689.993247   9317.684982 -22039.309862     68.375413
P 11 -17683.313088  -1140.255077  19797.303297    254.950832
P 13 -16241.123617   8820.622866 -19129.242543      8.944472
P 14  -3105.693132 -15460.044449  21431.083012    -27.667179
P 15    622.640187 -25040.376136  -8466.193342    473.393889
P 16  -9044.959232 -12347.362102 -21615.209027 999999.999999
P 18  17476.586235 -19602.823559   2787.458132   -179.050542
P 19 -25501.916941  -7427.130342    292.961182    -25.175586
P 20 -21213.593341  10828.064443  11660.712232    -52.911396
P 21   8825.089192 -17373.083772 -17796.910989    120.783803
P 22   8576.539933 -21269.937054  13551.571998     34.011641
P 23 -24351.018180   1875.057951 -10708.383748    180.880933
P 24  -6384.417505  20424.365199  15870.899459     38.486647
P 25  -9353.697855 -24813.996873    693.365908    100.574800
P 26  25444.082899   8381.583368  -2633.354099     16.189039
P 27  -7747.020605  16771.085709 -18372.211498     10.864555
P 28  -9750.929842  21711.632392  11675.256130     43.275552
P 29  23554.788375  10097.080974  -7107.442708    246.341647
P 30  19236.866914 -17798.618760   3635.242175    338.618998
P 31  -7474.389199  14255.426208  20799.561062     11.666169
*  2005  8 12 16 15  0.00000000
P  1 -14119.227796 -14615.589152  17308.496556      2.860665
P  2  13705.128099  21662.220498  -7509.079619    -27.149244
P  3 -20372.171913 -11481.915790 -12982.408844     25.386249
P  4   4126.444081  25301.168620   6221.363714     26.100560
P  5  19547.103825  -6946.683505  16314.474788    121.888430
P  6  20304.157680  -8254.714883 -14869.776230    773.972521
P  7     -2.190547  16034.341093  21616.370788    278.652857
P  8  -1950.517871  22917.522627 -13109.690238    -37.998316
P  9  16902.056640   4997.882204  19450.378023     -2.589982
P 10   9988.705512  11148.303775 -22000.444437     68.374781
P 11 -18524.954778  -3213.726622  18794.432650    254.953966
P 13 -18246.567238   8272.408721 -17484.188986      8.946042
P 14   -685.697681 -14985.728986  21973.170141    -27.666879
P 15   1133.864291 -24031.986321 -11035.548644    473.398242
P 16  -7367.290663 -14153.688252 -21135.088854 999999.999999
P 18  17778.172645 -19517.147881    -80.734117   -179.052719
P 19 -25298.334541  -7644.107479  -2554.427502    -25.175987
P 20 -20399.389535   9576.032493  13965.598789    -52.909803
P 21   9584.218145 -15360.871422 -19240.253090    120.786719
P 22   9706.453780 -22114.999115  11206.895176     34.013120
P 23 -25349.648940   1462.521695  -8130.867412    180.879142
P 24  -7044.725290  18653.189058  17712.599715     38.489740
P 25  -9008.948104 -24746.348192   3518.512278    100.575021
P 26  25011.178924   8417.328739  -5457.404877     16.187064
P 27  -8744.500245  14695.192012 -19656.568825     10.865925
P 28 -10719.825356  22410.875081   9152.723264     43.275457
P 29  22551.367077  10076.476156  -9776.429080    246.363230
P 30  19087.602501 -17135.787358   6385.540499    338.633321
P 31  -9857.724981  13833.367911  20113.453574     11.667849
*  2005  8 12 16 30  0.00000000
P  1 -12095.326977 -14373.282634  18977.876141      2.861447
P  2  13726.675910  22376.316187  -4791.755474    -27.149419
P  3 -18778.339351 -11646.164066 -15065.915201     25.388747
P  4   3546.642730  24586.240174   8900.191765     26.077221
P  5  18617.345155  -5158.123549  17979.244446    121.891557
P  6  21881.235909  -7833.514045 -12745.512754    773.991468
P  7  -2385.376310  15839.203901  21616.555106    278.670359
P  8  -2685.077713  21468.980823 -15311.014095    -38.000065
P  9  17711.454243   7088.714906  18096.942577     -2.590932
P 10   8404.705473  13051.798560 -21585.136332     68.375828
P 11 -19390.462188  -5133.621940  17469.026750    254.957187
P 13 -20079.679902   7870.031649 -15539.296071      8.947428
P 14   1796.910675 -14641.253379  22139.107799    -27.666702
P 15   1778.507567 -22784.543100 -13413.034772    473.403265
P 16  -5832.418443 -15986.042459 -20288.080059 999999.999999
P 18  17870.837700 -19198.888172  -2947.504463   -179.055858
P 19 -24792.267505  -7808.739452  -5357.792964    -25.176276
P 20 -19499.701572   8086.653747  16028.821864    -52.908381
P 21  10487.482592 -13255.089885 -20347.234138    120.789393
P 22  10610.812877 -22810.589959   8670.751814     34.014582
P 23 -26073.483373   1144.572388  -5415.004222    180.877254
P 24  -7857.518349  16741.629559  19253.259540     38.492765
P 25  -8521.537349 -24413.842175   6283.199104    100.575265
P 26  24276.161389   8427.167846  -8191.536131     16.185208
P 27  -9897.067493  12555.631940 -20582.639764     10.867547
P 28 -11468.266864  22929.492077   6471.174427     43.274951
P 29  21255.241698  10076.791246 -12277.214303    246.384806
P 30  18790.688111 -16217.828380   9024.333436    338.648040
P 31 -12156.546117  13533.827746  19071.972817     11.669962
*  2005  8 12 16 45  0.00000000
P  1  -9892.837228 -14226.892943  20325.887391      2.862809
P  2  13649.480619  22810.086098  -1993.130297    -27.149618
P  3 -16974.989624 -11887.219788 -16895.438016     25.393428
P  4   2810.035862  23631.553054  11422.819264     26.053562
P  5  17688.335387  -3178.998220  19328.638722    121.895161
P  6  23222.612922  -7502.012958 -10400.555139    774.010285
P  7  -4757.159872  15762.165245  21258.845021    278.687836
P  8  -3586.395858  19848.101831 -17247.246209    -38.001497
P  9  18544.084716   8976.323806  16422.587773     -2.592742
P 10   6964.765242  14986.013733 -20799.574276     68.376129
P 11 -20247.356129  -6874.351736  15844.313461    254.960369
P 13 -21698.686362   7593.132613 -13327.644270      8.948625
P 14   4292.572789 -14435.946546  21925.955333    -27.666416
P 15   2577.245325 -21334.660404 -15558.114124    473.408488
P 16  -4460.905570 -17800.262730 -19088.788383 999999.999999
P 18  17785.115334 -18626.561474  -5762.578074   -179.058581
P 19 -23985.282299  -7958.375708  -8068.714448    -25.176667
P 20 -18556.518312   6370.757962  17814.504456    -52.906841
P 21  11532.809437 -11103.193720 -21099.795347    120.792122
P 22  11299.909720 -23318.168318   5986.223509     34.016489
P 23 -26502.684801    887.818311  -2606.928784    180.875212
P 24  -8828.318627  14735.250186  20467.665643     38.496601
P 25  -7865.386853 -23843.202656   8940.393063    100.576895
P 26  23248.222891   8450.447234 -10791.031885     16.183352
P 27 -11193.934002  10402.146968 -21133.923441     10.869071
P 28 -12011.818216  23231.210794   3676.776136     43.274243
P 29  19687.063791  10134.548099 -14566.060801    246.406361
P 30  18383.105164 -15039.138858  11505.152418    338.662518
P 31 -14325.318187  13347.529643  17694.664323     11.673402
EOF
